NORAD_CAT_ID,OBJECT_NAME,OBJECT_TYPE,EPOCH,MEAN_MOTION,ECCENTRICITY,INCLINATION,RA_OF_ASC_NODE,ARG_OF_PERICENTER,MEAN_ANOMALY,BSTAR,MEAN_MOTION_DOT,MEAN_MOTION_DDOT,TLE_LINE0,TLE_LINE1,TLE_LINE2,SEMIMAJOR_AXIS,PERIOD,APOGEE,PERIGEE,DECAYED
52557.0,STARLINK-3943,PAYLOAD,2022-08-20 22:00:00,15.08837372,0.0001489,53.2169,190.5456,69.7241,187.7954,0.00047044,7.206e-05,0.0,0 STARLINK-3943,1 52557U 22051AA  22232.91667824  .00007206  00000-0  47044-3 0  9995,2 52557  53.2169 190.5456 0001489  69.7241 187.7954 15.08837372  1302,6917.888000000001,95.438,540.783,538.7230000000002,0.0
52557.0,STARLINK-3943,PAYLOAD,2022-08-21 14:00:01,15.08846146,0.0001457,53.2167,187.5533,61.9503,218.7529,-0.0032348,-0.00051411,0.0,0 STARLINK-3943,1 52557U 22051AA  22233.58334491 -.00051411  00000-0 -32348-2 0  9999,2 52557  53.2167 187.5533 0001457  61.9503 218.7529 15.08846146  1304,6917.861999999999,95.437,540.735,538.719,0.0
52557.0,STARLINK-3943,PAYLOAD,2022-08-21 22:00:00,15.08826111,0.0001464,53.2168,186.0566,67.1811,225.0946,0.00013208,1.814e-05,0.0,0 STARLINK-3943,1 52557U 22051AA  22233.91667824  .00001814  00000-0  13208-3 0  9990,2 52557  53.2168 186.0566 0001464  67.1811 225.0946 15.08826111  1307,6917.9230000000025,95.438,540.8009999999998,538.775,0.0
52557.0,STARLINK-3943,PAYLOAD,2022-08-22 06:00:00,15.08807221,0.0001621999999999,53.2169,184.562,58.2693,245.5901,0.0021761,0.00034483,0.0,0 STARLINK-3943,1 52557U 22051AA  22234.25001157  .00034483  00000-0  21761-2 0  9999,2 52557  53.2169 184.5620 0001622  58.2693 245.5901 15.08807221 15952,6917.981,95.44,540.9680000000002,538.7230000000002,0.0
52557.0,STARLINK-3943,PAYLOAD,2022-08-22 12:00:00,15.0884522,0.0001544,53.2168,183.4388,59.0169,163.5139,-0.0019077,-0.00030525,0.0,0 STARLINK-3943,1 52557U 22051AA  22234.50001157 -.00030525  00000-0 -19077-2 0  9999,2 52557  53.2168 183.4388 0001544  59.0169 163.5139 15.08845220  1307,6917.864000000001,95.437,540.798,538.661,0.0
52557.0,STARLINK-3943,PAYLOAD,2022-08-22 22:00:00,15.08844818,0.0001557,53.2173,181.5677,66.1205,260.8897,-0.00022731,-3.904e-05,0.0,0 STARLINK-3943,1 52557U 22051AA  22234.91667824 -.00003904  00000-0 -22731-3 0  9996,2 52557  53.2173 181.5677 0001557  66.1205 260.8897 15.08844818 16059,6917.866,95.437,540.808,538.654,0.0
52557.0,STARLINK-3943,PAYLOAD,2022-08-23 14:00:01,15.08847197,0.0001613,53.2177,178.5752,62.2119,287.9903,-0.00060726,-9.942e-05,0.0,0 STARLINK-3943,1 52557U 22051AA  22235.58334491 -.00009942  00000-0 -60726-3 0  9995,2 52557  53.2177 178.5752 0001613  62.2119 287.9903 15.08847197  1300,6917.858,95.437,540.839,538.6080000000002,0.0
52557.0,STARLINK-3943,PAYLOAD,2022-08-23 22:00:01,15.08861048,0.0001645,53.218,177.0788,65.7322,296.1267,-0.000683,-0.00011148,0.0,0 STARLINK-3943,1 52557U 22051AA  22235.91668981 -.00011148  00000-0 -68300-3 0  9993,2 52557  53.2180 177.0788 0001645  65.7322 296.1267 15.08861048 16207,6917.816,95.436,540.819,538.543,0.0
52557.0,STARLINK-3943,PAYLOAD,2022-08-24 14:00:01,15.0884424,0.0001585,53.2183,174.0862,62.7645,322.2607,-0.0017073,-0.0002736,0.0,0 STARLINK-3943,1 52557U 22051AA  22236.58334491 -.00027360  00000-0 -17073-2 0  9996,2 52557  53.2183 174.0862 0001585  62.7645 322.2607 15.08844240  1307,6917.8669999999975,95.437,540.8290000000002,538.636,0.0
52557.0,STARLINK-3943,PAYLOAD,2022-08-24 22:00:00,15.08848177,0.0001588999999999,53.2187,172.5901,64.5805,332.0279,-0.0010670999999999,-0.00017235,0.0,0 STARLINK-3943,1 52557U 22051AA  22236.91667824 -.00017235  00000-0 -10671-2 0  9999,2 52557  53.2187 172.5901 0001589  64.5805 332.0279 15.08848177  1307,6917.855,95.437,540.82,538.621,0.0
52557.0,STARLINK-3943,PAYLOAD,2022-08-25 06:00:02,15.08815208,0.0001705,53.2186,171.0952,57.6628,350.6101,0.0027679,0.00044009,0.0,0 STARLINK-3943,1 52557U 22051AA  22237.25002315  .00044009  00000-0  27679-2 0  9998,2 52557  53.2186 171.0952 0001705  57.6628 350.6101 15.08815208 16408,6917.956,95.439,541.001,538.6419999999998,0.0
52557.0,STARLINK-3943,PAYLOAD,2022-08-25 14:00:01,15.08834771,0.0001571999999999,53.2188,169.5973,64.2097,355.59,0.00055919,8.621e-05,0.0,0 STARLINK-3943,1 52557U 22051AA  22237.58334491  .00008621  00000-0  55919-3 0  9996,2 52557  53.2188 169.5973 0001572  64.2097 355.5900 15.08834771  1301,6917.896,95.438,540.849,538.674,0.0
52557.0,STARLINK-3943,PAYLOAD,2022-08-25 22:00:00,15.08861921,0.0001626999999999,53.2188,168.1024,65.72399999999999,5.6615,-0.0014449999999999,-0.00023225,0.0,0 STARLINK-3943,1 52557U 22051AA  22237.91667824 -.00023225  00000-0 -14450-2 0  9995,2 52557  53.2188 168.1024 0001627  65.7240   5.6615 15.08861921  1303,6917.813,95.436,540.804,538.553,0.0
52557.0,STARLINK-3943,PAYLOAD,2022-08-26 14:00:01,15.0883989,0.0001509,53.2188,165.1086,65.5009,29.1702,-0.0011918,-0.00019205,0.0,0 STARLINK-3943,1 52557U 22051AA  22238.58335648 -.00019205  00000-0 -11918-2 0  9994,2 52557  53.2188 165.1086 0001509  65.5009  29.1702 15.08839890  1306,6917.880999999999,95.438,540.79,538.702,0.0
52557.0,STARLINK-3943,PAYLOAD,2022-08-26 20:00:01,15.08834154,0.0001508,53.219,163.9866,68.3083,304.9884,0.00030366,4.547e-05,0.0,0 STARLINK-3943,1 52557U 22051AA  22238.83334491  .00004547  00000-0  30366-3 0  9997,2 52557  53.2190 163.9866 0001508  68.3083 304.9884 15.08834154 16649,6917.898,95.438,540.806,538.72,0.0
52557.0,STARLINK-3943,PAYLOAD,2022-08-26 22:00:00,15.08847571,0.0001539,53.2189,163.613,66.1321,40.0583,-0.0016713,-0.00026794,0.0,0 STARLINK-3943,1 52557U 22051AA  22238.91667824 -.00026794  00000-0 -16713-2 0  9994,2 52557  53.2189 163.6130 0001539  66.1321  40.0583 15.08847571  1301,6917.857,95.437,540.7869999999998,538.658,0.0
52557.0,STARLINK-3943,PAYLOAD,2022-08-27 14:00:01,15.08823006,0.0001495,53.2185,160.6201,66.8931,62.4793,0.0016277999999999,0.00025701,0.0,0 STARLINK-3943,1 52557U 22051AA  22239.58334491  .00025701  00000-0  16278-2 0  9990,2 52557  53.2185 160.6201 0001495  66.8931  62.4793 15.08823006  1306,6917.932,95.439,540.832,538.763,0.0
52557.0,STARLINK-3943,PAYLOAD,2022-08-27 22:00:00,15.08859653,0.0001588,53.2185,159.1245,67.5917,73.363,-0.001635,-0.00026229,0.0,0 STARLINK-3943,1 52557U 22051AA  22239.91667824 -.00026229  00000-0 -16350-2 0  9995,2 52557  53.2185 159.1245 0001588  67.5917  73.3630 15.08859653  1300,6917.82,95.436,540.784,538.587,0.0
52557.0,STARLINK-3943,PAYLOAD,2022-08-28 14:00:01,15.08836464,0.0001473,53.2181,156.1313,66.9092,97.2731,8.0169e-05,9.88e-06,0.0,0 STARLINK-3943,1 52557U 22051AA  22240.58334491  .00000988  00000-0  80169-4 0  9994,2 52557  53.2181 156.1313 0001473  66.9092  97.2731 15.08836464  1301,6917.891,95.438,540.775,538.737,0.0
52557.0,STARLINK-3943,PAYLOAD,2022-08-28 22:00:00,15.08850147,0.0001548,53.2181,154.6358,66.0789,109.6883,-0.0014504,-0.00023303,0.0,0 STARLINK-3943,1 52557U 22051AA  22240.91667824 -.00023303  00000-0 -14504-2 0  9996,2 52557  53.2181 154.6358 0001548  66.0789 109.6883 15.08850147  1300,6917.849,95.437,540.785,538.643,0.0
52557.0,STARLINK-3943,PAYLOAD,2022-08-29 14:00:01,15.08796609,0.0001422,53.2179,151.6424,64.0206,134.9366,0.0023728,0.00037632,0.0,0 STARLINK-3943,1 52557U 22051AA  22241.58334491  .00037632  00000-0  23728-2 0  9997,2 52557  53.2179 151.6424 0001422  64.0206 134.9366 15.08796609  1300,6918.013000000001,95.44,540.862,538.894,0.0
52557.0,STARLINK-3943,PAYLOAD,2022-08-29 16:00:00,15.08797882,0.0001455,53.2178,151.268,66.0835,225.7647,0.0029569,0.00047031,0.0,0 STARLINK-3943,1 52557U 22051AA  22241.66667824  .00047031  00000-0  29569-2 0  9998,2 52557  53.2178 151.2680 0001455  66.0835 225.7647 15.08797882 17071,6918.009,95.44,540.881,538.868,0.0
52557.0,STARLINK-3943,PAYLOAD,2022-08-29 22:00:00,15.08836962,0.0001546,53.2179,150.1471,63.5037,147.0127,-0.0013587999999999,-0.00021846,0.0,0 STARLINK-3943,1 52557U 22051AA  22241.91667824 -.00021846  00000-0 -13588-2 0  9998,2 52557  53.2179 150.1471 0001546  63.5037 147.0127 15.08836962  1306,6917.89,95.438,540.8240000000002,538.685,0.0
52557.0,STARLINK-3943,PAYLOAD,2022-08-30 06:00:00,15.08818897,0.0001626,53.2177,148.6515,57.0542,165.0439,0.0019614,0.00031048,0.0,0 STARLINK-3943,1 52557U 22051AA  22242.25001157  .00031048  00000-0  19614-2 0  9996,2 52557  53.2177 148.6515 0001626  57.0542 165.0439 15.08818897 17167,6917.945,95.439,540.935,538.685,0.0
52557.0,STARLINK-3943,PAYLOAD,2022-08-30 14:00:01,15.0881443,0.0001521999999999,53.2179,147.1534,64.3009,169.3868,0.0028128,0.00044731,0.0,0 STARLINK-3943,1 52557U 22051AA  22242.58334491  .00044731  00000-0  28128-2 0  9995,2 52557  53.2179 147.1534 0001522  64.3009 169.3868 15.08814430  1309,6917.959,95.439,540.876,538.771,0.0
52557.0,STARLINK-3943,PAYLOAD,2022-08-30 22:00:00,15.08854936,0.0001651,53.218,145.6581,62.9446,182.3249,-0.0012059,-0.00019437,0.0,0 STARLINK-3943,1 52557U 22051AA  22242.91667824 -.00019437  00000-0 -12059-2 0  9994,2 52557  53.2180 145.6581 0001651  62.9446 182.3249 15.08854936  1301,6917.835,95.437,540.842,538.558,0.0
52557.0,STARLINK-3943,PAYLOAD,2022-08-31 14:00:01,15.08816848,0.0001517,53.218,142.6642,64.0959,204.3998,0.0021766,0.00034501,0.0,0 STARLINK-3943,1 52557U 22051AA  22243.58334491  .00034501  00000-0  21766-2 0  9991,2 52557  53.2180 142.6642 0001517  64.0959 204.3998 15.08816848  1305,6917.951,95.439,540.866,538.7669999999998,0.0
52557.0,STARLINK-3943,PAYLOAD,2022-08-31 22:00:00,15.08846363,0.0001599,53.2181,141.1691,61.1499,218.9103,-0.0011224,-0.0001810999999999,0.0,0 STARLINK-3943,1 52557U 22051AA  22243.91667824 -.00018110  00000-0 -11224-2 0  9995,2 52557  53.2181 141.1691 0001599  61.1499 218.9103 15.08846363 17414,6917.861,95.437,540.832,538.62,0.0
52557.0,STARLINK-3943,PAYLOAD,2022-09-01 14:00:01,15.08827634,0.0001496999999999,53.2181,138.175,64.9728,238.3485,0.002641,0.0004198,0.0,0 STARLINK-3943,1 52557U 22051AA  22244.58335648  .00041980  00000-0  26410-2 0  9997,2 52557  53.2181 138.1750 0001497  64.9728 238.3485 15.08827634  1309,6917.918000000002,95.438,540.819,538.748,0.0
